[{"OBJECT_NAME":"WEINA 2","OBJECT_ID":"2020-103B","EPOCH":"2026-03-09T23:41:17.753856","MEAN_MOTION":14.64853459,"ECCENTRICITY":0.00029334,"INCLINATION":98.066,"RA_OF_ASC_NODE":320.1762,"ARG_OF_PERICENTER":124.191,"MEAN_ANOMALY":235.9572,"EPHEMERIS_TYPE":0,"CLASSIFICATION_TYPE":"U","NORAD_CAT_ID":47303,"ELEMENT_SET_NO":999,"REV_AT_EPOCH":27720,"BSTAR":0.00031236828,"MEAN_MOTION_DOT":1.621e-5,"MEAN_MOTION_DDOT":0},{"OBJECT_NAME":"CZ-6A DEB","OBJECT_ID":"2022-151AM","EPOCH":"2026-03-09T19:08:00.092256","MEAN_MOTION":14.7152989,"ECCENTRICITY":0.01168946,"INCLINATION":98.7476,"RA_OF_ASC_NODE":167.8394,"ARG_OF_PERICENTER":167.6861,"MEAN_ANOMALY":192.7245,"EPHEMERIS_TYPE":0,"CLASSIFICATION_TYPE":"U","NORAD_CAT_ID":54294,"ELEMENT_SET_NO":999,"REV_AT_EPOCH":17641,"BSTAR":0.0014817554,"MEAN_MOTION_DOT":0.0001019,"MEAN_MOTION_DDOT":0}]
